[{"OBJECT_NAME":"ONEWEB-0620","OBJECT_ID":"2023-004X","EPOCH":"2026-03-06T08:47:43.619712","MEAN_MOTION":13.11417808,"ECCENTRICITY":0.00021176,"INCLINATION":87.8855,"RA_OF_ASC_NODE":41.5236,"ARG_OF_PERICENTER":82.1897,"MEAN_ANOMALY":277.9472,"EPHEMERIS_TYPE":0,"CLASSIFICATION_TYPE":"U","NORAD_CAT_ID":55161,"ELEMENT_SET_NO":999,"REV_AT_EPOCH":15235,"BSTAR":0.00066294918,"MEAN_MOTION_DOT":2.48e-6,"MEAN_MOTION_DDOT":0},{"OBJECT_NAME":"ONEWEB-0621","OBJECT_ID":"2023-004Y","EPOCH":"2026-03-06T20:26:00.005280","MEAN_MOTION":13.11415329,"ECCENTRICITY":0.0001713,"INCLINATION":87.8868,"RA_OF_ASC_NODE":41.4067,"ARG_OF_PERICENTER":77.1562,"MEAN_ANOMALY":282.9757,"EPHEMERIS_TYPE":0,"CLASSIFICATION_TYPE":"U","NORAD_CAT_ID":55162,"ELEMENT_SET_NO":999,"REV_AT_EPOCH":15239,"BSTAR":0.00093403,"MEAN_MOTION_DOT":3.44e-6,"MEAN_MOTION_DDOT":0},{"OBJECT_NAME":"ONEWEB-0622","OBJECT_ID":"2023-004Z","EPOCH":"2026-03-06T09:34:06.048768","MEAN_MOTION":13.11415748,"ECCENTRICITY":0.00021785,"INCLINATION":87.8859,"RA_OF_ASC_NODE":41.4992,"ARG_OF_PERICENTER":63.877,"MEAN_ANOMALY":296.2582,"EPHEMERIS_TYPE":0,"CLASSIFICATION_TYPE":"U","NORAD_CAT_ID":55163,"ELEMENT_SET_NO":999,"REV_AT_EPOCH":15232,"BSTAR":0.00011424692,"MEAN_MOTION_DOT":5.3e-7,"MEAN_MOTION_DDOT":0},{"OBJECT_NAME":"ONEWEB-0623","OBJECT_ID":"2023-004AA","EPOCH":"2026-03-06T19:23:38.680512","MEAN_MOTION":13.1764876,"ECCENTRICITY":0.0001616,"INCLINATION":87.9142,"RA_OF_ASC_NODE":26.2117,"ARG_OF_PERICENTER":64.0153,"MEAN_ANOMALY":296.1144,"EPHEMERIS_TYPE":0,"CLASSIFICATION_TYPE":"U","NORAD_CAT_ID":55164,"ELEMENT_SET_NO":999,"REV_AT_EPOCH":15410,"BSTAR":7.7536e-6,"MEAN_MOTION_DOT":1.6e-7,"MEAN_MOTION_DDOT":0},{"OBJECT_NAME":"ONEWEB-0624","OBJECT_ID":"2023-004AB","EPOCH":"2026-03-06T20:18:17.976096","MEAN_MOTION":13.12922299,"ECCENTRICITY":0.0001772,"INCLINATION":87.9002,"RA_OF_ASC_NODE":10.9157,"ARG_OF_PERICENTER":71.0388,"MEAN_ANOMALY":289.0933,"EPHEMERIS_TYPE":0,"CLASSIFICATION_TYPE":"U","NORAD_CAT_ID":55165,"ELEMENT_SET_NO":999,"REV_AT_EPOCH":15464,"BSTAR":0.00045379,"MEAN_MOTION_DOT":1.77e-6,"MEAN_MOTION_DDOT":0},{"OBJECT_NAME":"ONEWEB-0625","OBJECT_ID":"2023-004AC","EPOCH":"2026-03-06T08:12:58.580352","MEAN_MOTION":13.1764945,"ECCENTRICITY":0.00017123,"INCLINATION":87.9143,"RA_OF_ASC_NODE":26.2979,"ARG_OF_PERICENTER":85.3564,"MEAN_ANOMALY":274.7763,"EPHEMERIS_TYPE":0,"CLASSIFICATION_TYPE":"U","NORAD_CAT_ID":55166,"ELEMENT_SET_NO":999,"REV_AT_EPOCH":15403,"BSTAR":5.9140343e-5,"MEAN_MOTION_DOT":3.6e-7,"MEAN_MOTION_DDOT":0},{"OBJECT_NAME":"ONEWEB-0626","OBJECT_ID":"2023-004AD","EPOCH":"2026-03-06T20:43:49.486080","MEAN_MOTION":13.17654981,"ECCENTRICITY":0.0002209,"INCLINATION":87.9153,"RA_OF_ASC_NODE":26.1945,"ARG_OF_PERICENTER":85.4541,"MEAN_ANOMALY":274.6843,"EPHEMERIS_TYPE":0,"CLASSIFICATION_TYPE":"U","NORAD_CAT_ID":55167,"ELEMENT_SET_NO":999,"REV_AT_EPOCH":15410,"BSTAR":0.0022807,"MEAN_MOTION_DOT":8.99e-6,"MEAN_MOTION_DDOT":0},{"OBJECT_NAME":"ONEWEB-0627","OBJECT_ID":"2023-004AE","EPOCH":"2026-03-06T20:26:49.470144","MEAN_MOTION":13.17650087,"ECCENTRICITY":0.0001711,"INCLINATION":87.9142,"RA_OF_ASC_NODE":26.1968,"ARG_OF_PERICENTER":64.2763,"MEAN_ANOMALY":295.8545,"EPHEMERIS_TYPE":0,"CLASSIFICATION_TYPE":"U","NORAD_CAT_ID":55168,"ELEMENT_SET_NO":999,"REV_AT_EPOCH":15410,"BSTAR":-2.7468e-5,"MEAN_MOTION_DOT":2.0e-8,"MEAN_MOTION_DDOT":0},{"OBJECT_NAME":"ONEWEB-0628","OBJECT_ID":"2023-004AF","EPOCH":"2026-03-06T13:27:57.991104","MEAN_MOTION":13.12442092,"ECCENTRICITY":0.00015285,"INCLINATION":87.8998,"RA_OF_ASC_NODE":11.0205,"ARG_OF_PERICENTER":55.6674,"MEAN_ANOMALY":304.4599,"EPHEMERIS_TYPE":0,"CLASSIFICATION_TYPE":"U","NORAD_CAT_ID":55169,"ELEMENT_SET_NO":999,"REV_AT_EPOCH":15457,"BSTAR":-0.00087514732,"MEAN_MOTION_DOT":-3.02e-6,"MEAN_MOTION_DDOT":0},{"OBJECT_NAME":"ONEWEB-0629","OBJECT_ID":"2023-004AG","EPOCH":"2026-03-06T08:55:27.935040","MEAN_MOTION":13.17647483,"ECCENTRICITY":0.0001501,"INCLINATION":87.914,"RA_OF_ASC_NODE":26.2894,"ARG_OF_PERICENTER":78.4575,"MEAN_ANOMALY":281.6725,"EPHEMERIS_TYPE":0,"CLASSIFICATION_TYPE":"U","NORAD_CAT_ID":55170,"ELEMENT_SET_NO":999,"REV_AT_EPOCH":15404,"BSTAR":6.5003455e-5,"MEAN_MOTION_DOT":3.8e-7,"MEAN_MOTION_DDOT":0},{"OBJECT_NAME":"ONEWEB-0631","OBJECT_ID":"2023-004AH","EPOCH":"2026-03-06T12:23:12.189984","MEAN_MOTION":13.18683766,"ECCENTRICITY":0.00023034,"INCLINATION":87.9251,"RA_OF_ASC_NODE":355.824,"ARG_OF_PERICENTER":75.6658,"MEAN_ANOMALY":284.473,"EPHEMERIS_TYPE":0,"CLASSIFICATION_TYPE":"U","NORAD_CAT_ID":55171,"ELEMENT_SET_NO":999,"REV_AT_EPOCH":15614,"BSTAR":0.00038993813,"MEAN_MOTION_DOT":1.67e-6,"MEAN_MOTION_DDOT":0},{"OBJECT_NAME":"ONEWEB-0709","OBJECT_ID":"2023-004AJ","EPOCH":"2026-03-06T08:33:04.541184","MEAN_MOTION":13.11417315,"ECCENTRICITY":0.00026561,"INCLINATION":87.8853,"RA_OF_ASC_NODE":41.5295,"ARG_OF_PERICENTER":92.1016,"MEAN_ANOMALY":268.0416,"EPHEMERIS_TYPE":0,"CLASSIFICATION_TYPE":"U","NORAD_CAT_ID":55172,"ELEMENT_SET_NO":999,"REV_AT_EPOCH":15239,"BSTAR":-0.00065214113,"MEAN_MOTION_DOT":-2.18e-6,"MEAN_MOTION_DDOT":0},{"OBJECT_NAME":"ONEWEB-0710","OBJECT_ID":"2023-004AK","EPOCH":"2026-03-06T14:44:10.364640","MEAN_MOTION":13.17648725,"ECCENTRICITY":0.00018868,"INCLINATION":87.9144,"RA_OF_ASC_NODE":26.2363,"ARG_OF_PERICENTER":75.7042,"MEAN_ANOMALY":284.4299,"EPHEMERIS_TYPE":0,"CLASSIFICATION_TYPE":"U","NORAD_CAT_ID":55173,"ELEMENT_SET_NO":999,"REV_AT_EPOCH":15407,"BSTAR":-0.00038183108,"MEAN_MOTION_DOT":-1.35e-6,"MEAN_MOTION_DDOT":0},{"OBJECT_NAME":"ONEWEB-0711","OBJECT_ID":"2023-004AL","EPOCH":"2026-03-06T20:40:38.300160","MEAN_MOTION":13.11414951,"ECCENTRICITY":0.0001887,"INCLINATION":87.8864,"RA_OF_ASC_NODE":41.4101,"ARG_OF_PERICENTER":60.0624,"MEAN_ANOMALY":300.0691,"EPHEMERIS_TYPE":0,"CLASSIFICATION_TYPE":"U","NORAD_CAT_ID":55174,"ELEMENT_SET_NO":999,"REV_AT_EPOCH":15242,"BSTAR":-0.00019865,"MEAN_MOTION_DOT":-5.8e-7,"MEAN_MOTION_DDOT":0},{"OBJECT_NAME":"ONEWEB-0713","OBJECT_ID":"2023-004AM","EPOCH":"2026-03-06T08:18:24.863904","MEAN_MOTION":13.11416774,"ECCENTRICITY":0.00018221,"INCLINATION":87.8864,"RA_OF_ASC_NODE":41.5124,"ARG_OF_PERICENTER":71.3644,"MEAN_ANOMALY":288.7682,"EPHEMERIS_TYPE":0,"CLASSIFICATION_TYPE":"U","NORAD_CAT_ID":55175,"ELEMENT_SET_NO":999,"REV_AT_EPOCH":15234,"BSTAR":-0.0013872291,"MEAN_MOTION_DOT":-4.79e-6,"MEAN_MOTION_DDOT":0},{"OBJECT_NAME":"ONEWEB-0715","OBJECT_ID":"2023-004AN","EPOCH":"2026-03-06T21:00:09.799488","MEAN_MOTION":13.11416002,"ECCENTRICITY":0.0002577,"INCLINATION":87.8858,"RA_OF_ASC_NODE":41.4073,"ARG_OF_PERICENTER":81.9874,"MEAN_ANOMALY":278.1547,"EPHEMERIS_TYPE":0,"CLASSIFICATION_TYPE":"U","NORAD_CAT_ID":55176,"ELEMENT_SET_NO":999,"REV_AT_EPOCH":15245,"BSTAR":-0.0013455,"MEAN_MOTION_DOT":-4.64e-6,"MEAN_MOTION_DDOT":0},{"OBJECT_NAME":"ONEWEB-0716","OBJECT_ID":"2023-004AP","EPOCH":"2026-03-06T20:02:31.729344","MEAN_MOTION":13.17648439,"ECCENTRICITY":0.0001755,"INCLINATION":87.9145,"RA_OF_ASC_NODE":26.1921,"ARG_OF_PERICENTER":87.1095,"MEAN_ANOMALY":273.0237,"EPHEMERIS_TYPE":0,"CLASSIFICATION_TYPE":"U","NORAD_CAT_ID":55177,"ELEMENT_SET_NO":999,"REV_AT_EPOCH":15410,"BSTAR":-6.2403e-5,"MEAN_MOTION_DOT":-1.1e-7,"MEAN_MOTION_DDOT":0}]
