ONEWEB-0620             
1 55161U 23004X   26065.36647708  .00000248  00000+0  66295-3 0  9991
2 55161  87.8855  41.5236 0002117  82.1897 277.9472 13.11417808152356
ONEWEB-0621             
1 55162U 23004Y   26065.85138895  .00000344  00000+0  93403-3 0  9996
2 55162  87.8868  41.4067 0001713  77.1562 282.9757 13.11415329152398
ONEWEB-0622             
1 55163U 23004Z   26065.39868112  .00000053  00000+0  11425-3 0  9999
2 55163  87.8859  41.4992 0002178  63.8770 296.2582 13.11415748152327
ONEWEB-0623             
1 55164U 23004AA  26065.80808658  .00000016  00000+0  77536-5 0  9991
2 55164  87.9142  26.2117 0001616  64.0153 296.1144 13.17648760154107
ONEWEB-0624             
1 55165U 23004AB  26065.84604139  .00000177  00000+0  45379-3 0  9990
2 55165  87.9002  10.9157 0001772  71.0388 289.0933 13.12922299154641
ONEWEB-0625             
1 55166U 23004AC  26065.34234468  .00000036  00000+0  59140-4 0  9996
2 55166  87.9143  26.2979 0001712  85.3564 274.7763 13.17649450154033
ONEWEB-0626             
1 55167U 23004AD  26065.86376720  .00000899  00000+0  22807-2 0  9997
2 55167  87.9153  26.1945 0002209  85.4541 274.6843 13.17654981154106
ONEWEB-0627             
1 55168U 23004AE  26065.85196146  .00000002  00000+0 -27468-4 0  9996
2 55168  87.9142  26.1968 0001711  64.2763 295.8545 13.17650087154105
ONEWEB-0628             
1 55169U 23004AF  26065.56108786 -.00000302  00000+0 -87515-3 0  9990
2 55169  87.8998  11.0205 0001528  55.6674 304.4599 13.12442092154579
ONEWEB-0629             
1 55170U 23004AG  26065.37185110  .00000038  00000+0  65003-4 0  9990
2 55170  87.9140  26.2894 0001501  78.4575 281.6725 13.17647483154042
ONEWEB-0631             
1 55171U 23004AH  26065.51611331  .00000167  00000+0  38994-3 0  9997
2 55171  87.9251 355.8240 0002303  75.6658 284.4730 13.18683766156149
ONEWEB-0709             
1 55172U 23004AJ  26065.35630256 -.00000218  00000+0 -65214-3 0  9991
2 55172  87.8853  41.5295 0002656  92.1016 268.0416 13.11417315152399
ONEWEB-0710             
1 55173U 23004AK  26065.61400885 -.00000135  00000+0 -38183-3 0  9997
2 55173  87.9144  26.2363 0001886  75.7042 284.4299 13.17648725154075
ONEWEB-0711             
1 55174U 23004AL  26065.86155440 -.00000058  00000+0 -19865-3 0  9999
2 55174  87.8864  41.4101 0001887  60.0624 300.0691 13.11414951152421
ONEWEB-0713             
1 55175U 23004AM  26065.34612111 -.00000479  00000+0 -13872-2 0  9994
2 55175  87.8864  41.5124 0001822  71.3644 288.7682 13.11416774152342
ONEWEB-0715             
1 55176U 23004AN  26065.87511342 -.00000464  00000+0 -13455-2 0  9998
2 55176  87.8858  41.4073 0002577  81.9874 278.1547 13.11416002152457
ONEWEB-0716             
1 55177U 23004AP  26065.83508946 -.00000011  00000+0 -62403-4 0  9998
2 55177  87.9145  26.1921 0001755  87.1095 273.0237 13.17648439154101
